{
    "links": {
        "self": "http://www.neowsapp.com/rest/v1/neo/3739064?api_key=iIulBulltgU6a56xZRHN4H3l9WmuAYTsLGpBGhQ2"
    },
    "id": "3739064",
    "neo_reference_id": "3739064",
    "name": "(2015 YZ9)",
    "designation": "2015 YZ9",
    "nasa_jpl_url": "http://ssd.jpl.nasa.gov/sbdb.cgi?sstr=3739064",
    "absolute_magnitude_h": 21.4,
    "estimated_diameter": {
        "kilometers": {
            "estimated_diameter_min": 0.1394938229,
            "estimated_diameter_max": 0.3119176705
        },
        "meters": {
            "estimated_diameter_min": 139.4938229344,
            "estimated_diameter_max": 311.9176705226
        },
        "miles": {
            "estimated_diameter_min": 0.0866774163,
            "estimated_diameter_max": 0.1938165949
        },
        "feet": {
            "estimated_diameter_min": 457.6569140361,
            "estimated_diameter_max": 1023.3519701574
        }
    },
    "is_potentially_hazardous_asteroid": false,
    "close_approach_data": [
        {
            "close_approach_date": "2006-06-27",
            "close_approach_date_full": "2006-Jun-27 16:01",
            "epoch_date_close_approach": 1151424060000,
            "relative_velocity": {
                "kilometers_per_second": "25.5140285446",
                "kilometers_per_hour": "91850.5027605888",
                "miles_per_hour": "57072.3304514336"
            },
            "miss_distance": {
                "astronomical": "0.414661008",
                "lunar": "161.303132112",
                "kilometers": "62032403.56885296",
                "miles": "38545148.215412448"
            },
            "orbiting_body": "Earth"
        },
        {
            "close_approach_date": "2015-11-10",
            "close_approach_date_full": "2015-Nov-10 09:16",
            "epoch_date_close_approach": 1447146960000,
            "relative_velocity": {
                "kilometers_per_second": "11.7864890823",
                "kilometers_per_hour": "42431.3606961756",
                "miles_per_hour": "26365.197428132"
            },
            "miss_distance": {
                "astronomical": "0.1491902541",
                "lunar": "58.0350088449",
                "kilometers": "22318544.238118767",
                "miles": "13868100.3172103046"
            },
            "orbiting_body": "Earth"
        },
        {
            "close_approach_date": "2160-03-25",
            "close_approach_date_full": "2160-Mar-25 10:57",
            "epoch_date_close_approach": 6003111420000,
            "relative_velocity": {
                "kilometers_per_second": "12.3732586517",
                "kilometers_per_hour": "44543.7311460563",
                "miles_per_hour": "27677.7422779481"
            },
            "miss_distance": {
                "astronomical": "0.1419765141",
                "lunar": "55.2288639849",
                "kilometers": "21239384.099384967",
                "miles": "13197541.3012358646"
            },
            "orbiting_body": "Venus"
        },
        {
            "close_approach_date": "2164-12-14",
            "close_approach_date_full": "2164-Dec-14 05:59",
            "epoch_date_close_approach": 6152133540000,
            "relative_velocity": {
                "kilometers_per_second": "18.3234829246",
                "kilometers_per_hour": "65964.5385284603",
                "miles_per_hour": "40987.7989539758"
            },
            "miss_distance": {
                "astronomical": "0.169172365",
                "lunar": "65.808049985",
                "kilometers": "25307825.46686255",
                "miles": "15725553.54150119"
            },
            "orbiting_body": "Earth"
        }
    ],
    "orbital_data": {
        "orbit_id": "7",
        "orbit_determination_date": "2017-04-06 08:29:35",
        "first_observation_date": "2015-12-30",
        "last_observation_date": "2016-01-15",
        "data_arc_in_days": 16,
        "observations_used": 34,
        "orbit_uncertainty": "7",
        "minimum_orbit_intersection": ".0877409",
        "jupiter_tisserand_invariant": "3.954",
        "epoch_osculation": "2459000.5",
        "eccentricity": ".5473714896970373",
        "semi_major_axis": "1.737788029993384",
        "inclination": "7.343356528038564",
        "ascending_node_longitude": "25.7253416257428",
        "orbital_period": "836.7459693961256",
        "perihelion_distance": ".7865724072382255",
        "perihelion_argument": "341.6378208258879",
        "aphelion_distance": "2.689003652748541",
        "perihelion_time": "2458982.926933508694",
        "mean_anomaly": "7.560602821231049",
        "mean_motion": ".430238104713919",
        "equinox": "J2000",
        "orbit_class": {
            "orbit_class_type": "APO",
            "orbit_class_description": "Near-Earth asteroid orbits which cross the Earth’s orbit similar to that of 1862 Apollo",
            "orbit_class_range": "a (semi-major axis) > 1.0 AU; q (perihelion) < 1.017 AU"
        }
    },
    "is_sentry_object": false
}